2022-098Q               
1 53458U 22098Q   22249.83171810  .00009338  00000+0  57307-3 0  9991
2 53458  97.5311 345.7192 0011862 185.1140 291.4379 15.10274729  4155
2022-098R               
1 53459U 22098R   22249.83003986  .00009202  00000+0  56305-3 0  9997
2 53459  97.5296 345.7140 0011383 186.9150 290.6348 15.10391868  4150
HSU-SAT1                
1 53462U 98067UB  22249.52459396  .00032563  00000+0  53301-3 0  9995
2 53462  51.6409 293.3646 0005544 231.1876 128.8620 15.52182034  3917
FUTABA                  
1 53463U 98067UC  22249.52222239  .00037985  00000+0  61431-3 0  9996
2 53463  51.6407 293.3485 0005435 232.4651 127.5846 15.52443334  3910
TUMNANOSAT              
1 53464U 98067UD  22249.39110815  .00044616  00000+0  71343-3 0  9990
2 53464  51.6407 293.9731 0005331 234.0030 126.0467 15.52684523  3892
STARLINK-4415           
1 53465U 22099A   22249.83334491 -.01076327  00000+0 -19612-1 0  9996
2 53465  97.6548   9.2367 0002009  55.0432 106.7662 15.52181456  4157
STARLINK-4398           
1 53466U 22099B   22249.58334491 -.01272446  00000+0 -26395-1 0  9995
2 53466  97.6557   8.9684 0001890  53.4212  49.7226 15.48549258  1300
STARLINK-4394           
1 53467U 22099C   22249.83334491 -.01221315  00000+0 -25850-1 0  9998
2 53467  97.6556   9.2340 0001770  63.1426 353.2505 15.47858565  4157
STARLINK-4400           
1 53468U 22099D   22249.58334491 -.01237255  00000+0 -25250-1 0  9995
2 53468  97.6557   8.9668 0002072  49.8555  56.5944 15.48932472  1303
STARLINK-4399           
1 53469U 22099E   22249.58334491 -.01237165  00000+0 -25025-1 0  9996
2 53469  97.6555   8.9664 0001978  54.6727  54.2827 15.49185275  1304
STARLINK-4393           
1 53470U 22099F   22249.83334491 -.01222344  00000+0 -25471-1 0  9994
2 53470  97.6556   9.2324 0002035  47.7952  12.4303 15.48305344  4153
STARLINK-4316           
1 53471U 22099G   22249.83334491 -.01222728  00000+0 -24976-1 0  9990
2 53471  97.6556   9.2311 0002059  47.1847  17.8793 15.48874376  4151
STARLINK-4447           
1 53472U 22099H   22249.58334491 -.01220890  00000+0 -24414-1 0  9998
2 53472  97.6554   8.9660 0002011  51.7024  59.0602 15.49473988  1305
STARLINK-4383           
1 53473U 22099J   22249.58334491 -.01225875  00000+0 -24027-1 0  9997
2 53473  97.6554   8.9637 0002010  53.7806  61.6947 15.50051879  1303
STARLINK-4445           
1 53474U 22099K   22249.58334491 -.01227518  00000+0 -23582-1 0  9999
2 53474  97.6553   8.9604 0001915  59.6426  60.0793 15.50620190  1303
STARLINK-4389           
1 53475U 22099L   22249.58334491 -.01230779  00000+0 -23899-1 0  9994
2 53475  97.6554   8.9630 0001960  59.2690  57.5805 15.50326161  1309
STARLINK-4378           
1 53476U 22099M   22249.58334491 -.01228715  00000+0 -24304-1 0  9994
2 53476  97.6554   8.9642 0001920  56.1405  57.1279 15.49800688  1309
STARLINK-4412           
1 53477U 22099N   22249.83334491 -.01223174  00000+0 -24194-1 0  9994
2 53477  97.6556   9.2271 0001810  62.1569  10.6694 15.49789739  4154
STARLINK-4433           
1 53478U 22099P   22249.83334491 -.01222559  00000+0 -24669-1 0  9998
2 53478  97.6556   9.2295 0001802  62.3139   5.6231 15.49223621  4151
STARLINK-4436           
1 53479U 22099Q   22249.83334491 -.01223682  00000+0 -23942-1 0  9990
2 53479  97.6556   9.2267 0001994  51.0393  24.1221 15.50096610  4153
STARLINK-4442           
1 53480U 22099R   22249.83334491 -.01223367  00000+0 -24274-1 0  9991
2 53480  97.6556   9.2280 0001987  51.0067  20.7882 15.49699817  4151
STARLINK-4302           
1 53481U 22099S   22249.58334491 -.00849878  00000+0 -16223-1 0  9999
2 53481  97.6556   8.9598 0001904  56.3505  66.3272 15.50687284  1304
STARLINK-4360           
1 53482U 22099T   22249.58334491 -.01222915  00000+0 -23236-1 0  9990
2 53482  97.6554   8.9601 0002134  52.4221  69.2789 15.50917498  1304
STARLINK-4401           
1 53483U 22099U   22249.58334491 -.01126206  00000+0 -21366-1 0  9999
2 53483  97.6555   8.9581 0002083  60.4582  64.7039 15.51185383  1304
STARLINK-4426           
1 53484U 22099V   22249.58334491 -.01228517  00000+0 -23282-1 0  9997
2 53484  97.6554   8.9596 0001886  69.1916  54.1597 15.51004553  1308
STARLINK-4430           
1 53485U 22099W   22249.83334491 -.01224671  00000+0 -23275-1 0  9995
2 53485  97.6556   9.2231 0001938  55.5010  26.5529 15.50916245  4156
STARLINK-4431           
1 53486U 22099X   22249.58334491 -.01227500  00000+0 -23257-1 0  9992
2 53486  97.6553   8.9588 0001983  60.6937  63.4410 15.51008384  1300
STARLINK-4432           
1 53487U 22099Y   22249.83334491 -.01224180  00000+0 -23104-1 0  9993
2 53487  97.6556   9.2213 0001846  61.2207  22.5984 15.51111230  4151
STARLINK-4421           
1 53488U 22099Z   22249.58334491 -.01212811  00000+0 -22737-1 0  9995
2 53488  97.6553   8.9582 0001943  58.1781  67.7598 15.51272421  1300
STARLINK-4392           
1 53489U 22099AA  22249.83334491 -.01224357  00000+0 -23057-1 0  9998
2 53489  97.6556   9.2208 0001999  52.0167  33.4127 15.51171340  4157
STARLINK-4387           
1 53490U 22099AB  22249.83334491 -.01224403  00000+0 -23218-1 0  9991
2 53490  97.6556   9.2221 0001941  55.1885  27.7159 15.50978191  4151
STARLINK-4450           
1 53491U 22099AC  22249.83334491 -.01225014  00000+0 -22901-1 0  9999
2 53491  97.6556   9.2191 0002039  50.8868  36.2442 15.51377209  4154
STARLINK-4451           
1 53492U 22099AD  22249.83334491 -.01224316  00000+0 -23102-1 0  9998
2 53492  97.6556   9.2205 0001963  53.8048  30.7972 15.51116073  4156
STARLINK-4361           
1 53493U 22099AE  22249.83334491 -.01227702  00000+0 -22854-1 0  9994
2 53493  97.6553   9.2173 0001908  65.3039  23.4418 15.51502746  4155
STARLINK-4340           
1 53494U 22099AF  22249.83334491 -.01225375  00000+0 -23046-1 0  9993
2 53494  97.6556   9.2198 0001921  57.8326  28.4065 15.51210829  4157
STARLINK-4429           
1 53495U 22099AG  22249.83334491 -.01212826  00000+0 -22461-1 0  9991
2 53495  97.6554   9.2173 0001892  58.5616  31.7828 15.51614207  4169
STARLINK-4465           
1 53496U 22099AH  22249.83334491 -.01224673  00000+0 -22889-1 0  9999
2 53496  97.6556   9.2181 0001780  69.0962  18.8180 15.51385508  4153
STARLINK-4453           
1 53497U 22099AJ  22249.83334491 -.00974578  00000+0 -17860-1 0  9998
2 53497  97.6551   9.2160 0001937  51.4876  40.5013 15.51762976  4165
STARLINK-4439           
1 53498U 22099AK  22249.83334491 -.01228833  00000+0 -22870-1 0  9993
2 53498  97.6556   9.2177 0002127  54.4793  35.0468 15.51509508  4154
STARLINK-4454           
1 53499U 22099AL  22249.83334491 -.00897857  00000+0 -16601-1 0  9996
2 53499  97.6551   9.2153 0001795  60.0420  32.7471 15.51725377  4156
STARLINK-4455           
1 53500U 22099AM  22249.83334491 -.01210640  00000+0 -22396-1 0  9997
2 53500  97.6555   9.2163 0001890  58.4980  32.6306 15.51639970  4162
STARLINK-4434           
1 53501U 22099AN  22249.83334491 -.00635752  00000+0 -11524-1 0  9993
2 53501  97.6548   9.2147 0001668  59.1424  36.0278 15.51829582  4156
STARLINK-4435           
1 53502U 22099AP  22249.83334491 -.00799641  00000+0 -14630-1 0  9993
2 53502  97.6549   9.2157 0001781  67.5207  26.0855 15.51724069  4151
STARLINK-4461           
1 53503U 22099AQ  22249.83334491 -.00713269  00000+0 -13024-1 0  9992
2 53503  97.6551   9.2144 0001762  69.5659  26.4441 15.51897532  4154
STARLINK-4448           
1 53504U 22099AR  22249.83334491 -.00686785  00000+0 -12551-1 0  9999
2 53504  97.6550   9.2154 0001700  70.3426  24.0630 15.51781198  4153
STARLINK-4446           
1 53505U 22099AS  22249.83334491 -.00522684  00000+0 -93030-2 0  9999
2 53505  97.6553   9.2136 0001542  77.8960  20.3652 15.51944949  4154
STARLINK-4437           
1 53506U 22099AT  22249.83334491 -.00616564  00000+0 -11121-1 0  9991
2 53506  97.6555   9.2134 0001785  68.5678  28.1476 15.51899572  4158
STARLINK-4444           
1 53507U 22099AU  22249.58334491  .00015167  00000+0  25594-3 0  9995
2 53507  97.6538   8.9491 0001513  69.2073  74.2134 15.51752632  1300
STARLINK-4443           
1 53508U 22099AV  22249.83334491 -.00549218  00000+0 -98042-2 0  9992
2 53508  97.6555   9.2145 0001679  67.5771  29.9135 15.51954038  4157
STARLINK-4402           
1 53509U 22099AW  22249.83334491  .00027425  00000+0  46105-3 0  9996
2 53509  97.6549   9.2134 0001593  70.5227  30.1323 15.51730026  4156
STARLINK-4441           
1 53510U 22099AX  22249.58334491  .00016154  00000+0  27258-3 0  9995
2 53510  97.6544   8.9481 0001383  64.1591  80.0724 15.51739126  1307
FALCON 9 DEB            
1 53511U 22099AY  22249.76134459  .00249642  25760-4  72502-3 0  9995
2 53511  97.6772  10.0225 0008700 200.4849 159.6076 15.92855958  3955
FALCON 9 DEB            
1 53512U 22099AZ  22249.75317789  .00253950  26813-4  71132-3 0  9999
2 53512  97.6731  10.0257 0006325 205.1314 154.9653 15.93581091  3950
FALCON 9 DEB            
1 53513U 22099BA  22249.73268115  .00305229  38877-4  77150-3 0  9992
2 53513  97.6684  10.0431 0008244 176.8962 183.2365 15.95484931  3959
FALCON 9 DEB            
1 53514U 22099BB  22249.28972684  .00271095  30943-4  69086-3 0  9994
2 53514  97.6687   9.5457 0007736 168.7766 191.3683 15.95343585  3885
YAOGAN-35 04A           
1 53522U 22100A   22249.61177313  .00011580  00000+0  48212-3 0  9994
2 53522  35.0009  95.3252 0006598  57.1014 303.0338 15.22937445  2732
CZ-2D R/B               
1 53523U 22100B   22249.60510340  .00018009  00000+0  73168-3 0  9996
2 53523  35.0015  95.2696 0007055  61.2679 298.8751 15.23688443  2735
YAOGAN-35 04B           
1 53524U 22100C   22249.87063119  .00011658  00000+0  48488-3 0  9993
2 53524  35.0002  93.6486 0004843  60.3877 299.7321 15.22980920  2729
CZ-2D DEB               
1 53525U 22100D   22249.60119291  .00020250  00000+0  81355-3 0  9996
2 53525  35.0018  95.2376 0007284  72.4632 287.6889 15.24045554  2685
